OBJECT_NAME,OBJECT_ID,EPOCH,MEAN_MOTION,ECCENTRICITY,INCLINATION,RA_OF_ASC_NODE,ARG_OF_PERICENTER,MEAN_ANOMALY,EPHEMERIS_TYPE,CLASSIFICATION_TYPE,NORAD_CAT_ID,ELEMENT_SET_NO,REV_AT_EPOCH,BSTAR,MEAN_MOTION_DOT,MEAN_MOTION_DDOT
STAR ONE D2,2021-069A,2026-06-10T12:57:33.890976,1.00267877,.00020013,0.0139,348.7558,118.3258,276.1001,0,U,49055,999,1787,0,0,0
EUTELSAT QUANTUM,2021-069B,2026-06-11T15:10:58.176192,1.00270266,.0002145,0.0147,17.3719,64.1302,93.9199,0,U,49056,999,1787,0,.143E-5,0
ZHONGXING-2E,2021-071A,2026-06-11T17:15:28.269216,1.00272053,.0001707,0.0394,238.1865,249.3236,129.4921,0,U,49062,999,1798,0,-.275E-5,0
TJS-7,2021-077A,2026-06-11T19:37:03.440352,1.00270340,.0002176,0.4936,86.1736,335.7682,33.0100,0,U,49115,999,950,0,-.108E-5,0
CHINASAT 9B,2021-080A,2026-06-11T21:18:25.134624,1.00271164,.0001432,0.0411,96.6432,12.4152,212.2030,0,U,49125,999,1759,0,-.296E-5,0
SHIJIAN-21 (SJ-21),2021-094A,2026-06-11T17:23:07.434240,1.00273487,.0049766,5.0994,61.2124,168.1610,59.5061,0,U,49330,999,530,0,-.334E-5,0
SES-17,2021-095A,2026-06-11T09:36:26.758080,1.00275202,.0001056,0.0244,33.3374,68.7337,234.6984,0,U,49332,999,1779,0,-.256E-5,0
SYRACUSE 4A,2021-095B,2026-06-11T15:10:20.734752,1.00274447,.0001328,0.0171,338.2301,113.6324,81.2144,0,U,49333,999,1789,0,.151E-5,0
QZS-1R (MICHIBIKI-1R),2021-096A,2026-06-11T15:33:15.227424,1.00257351,.075444,37.4503,79.6669,271.6776,276.3021,0,U,49336,999,1695,0,-.25E-5,0
ZHONGXING-1D,2021-114A,2026-06-11T20:42:27.393120,1.00271848,.0000485,0.0323,238.8461,336.3200,125.8525,0,U,49505,999,1676,0,-.32E-5,0
STPSAT-6,2021-118A,2026-06-11T16:08:13.071264,1.00272992,.0001427,0.3059,85.4535,249.2134,55.7350,0,U,49817,999,1651,0,-.3E-6,0
EXPRESS AMU-7,2021-123A,2026-06-11T20:46:41.986272,1.00271838,.0000298,0.0144,291.2020,31.5518,34.1357,0,U,50001,999,1648,0,-.226E-5,0
EXPRESS AMU-3,2021-123B,2026-06-10T23:50:40.432128,1.00272912,.0000337,0.0173,310.5314,43.9206,5.5594,0,U,50002,999,697,0,-.304E-5,0
TIANLIAN 2-02,2021-124A,2026-06-11T19:11:28.393152,1.00271763,.000122,0.7862,86.2327,204.8565,67.8986,0,U,50005,999,1656,0,.2E-7,0
TURKSAT 5B,2021-126A,2026-06-11T15:09:20.831040,1.00270734,.0003462,0.0681,341.0112,14.4126,173.8894,0,U,50212,999,1624,0,.163E-5,0
INMARSAT 6-F1,2021-128A,2026-06-11T17:03:55.852704,1.00270504,.0000338,0.0171,314.9399,244.6061,40.2457,0,U,50319,999,1620,0,-.155E-5,0
SHIYAN-12 01 (SY-12 01),2021-129A,2026-06-11T17:03:25.667136,1.00038281,.0003293,3.6596,79.9821,285.6552,214.9548,0,U,50321,999,1644,0,.66E-6,0
SHIYAN-12 02 (SY-12 02),2021-129B,2026-06-11T17:03:34.892064,1.00490692,.0002693,3.6592,79.9883,59.3531,101.2052,0,U,50322,999,1644,0,-.211E-5,0
TJS-9,2021-135A,2026-06-11T20:44:27.202272,1.00270037,.0004458,0.0497,253.4439,156.0644,299.0126,0,U,50574,999,1637,0,-.283E-5,0
USA 324,2022-006A,2026-06-06T02:06:38.886912,1.00289779,.000284,0.7690,83.2777,165.6787,110.1567,0,U,51280,999,1602,0,-.58E-6,0
GOES 18,2022-021A,2026-06-11T16:00:58.765248,1.00271607,.000046,0.0332,125.7729,29.3228,208.1548,0,U,51850,999,653,0,.113E-5,0
ZHONGXING-6D,2022-038A,2026-06-10T22:22:44.602752,1.00268573,.0000194,0.0273,272.2854,200.9604,246.7680,0,U,52255,999,1536,0,-.336E-5,0
NILESAT 301,2022-061A,2026-06-11T16:38:02.709024,1.00278760,.0005273,0.0457,351.7910,53.6570,97.1154,0,U,52817,999,1468,0,-.4E-6,0
CMS-02 (GSAT-24),2022-067A,2026-06-11T15:30:24.653952,1.00271141,.0001545,0.0422,121.5858,248.1891,205.8179,0,U,52903,999,1455,0,-.148E-5,0
MEASAT 3D,2022-067B,2026-06-11T20:52:54.779808,1.00269114,.0000578,0.0379,315.4473,103.9988,245.4733,0,U,52904,999,1459,0,-.225E-5,0
SES-22,2022-071A,2026-06-11T16:00:21.323808,1.00268998,.0001356,0.0161,302.1793,127.2488,291.6796,0,U,52933,999,746,0,.121E-5,0
WFOV (USA 332),2022-073A,2026-06-11T17:14:02.384160,1.00269533,.0002155,3.6961,78.5960,238.6185,320.6070,0,U,52940,999,1431,0,-.347E-5,0
TIANLIAN 2-03,2022-078A,2026-06-11T20:08:21.376320,1.00271474,.0001571,0.6585,76.9256,324.1858,171.7426,0,U,53100,999,1449,0,.88E-6,0
SBIRS GEO-6 (USA 336),2022-092A,2026-06-11T19:02:21.767136,1.00270778,.00018,3.2676,317.3945,120.3291,247.0137,0,U,53355,999,1418,0,-.276E-5,0
EUTELSAT KONNECT VHTS,2022-110A,2026-06-09T15:03:40.826304,1.00269352,.00026035,0.0647,103.4177,320.1706,63.0435,0,U,53765,999,676,0,.34E-6,0
ZHONGXING-1E,2022-112A,2026-06-11T11:55:19.377984,1.00269691,.0000241,0.0524,102.4235,193.9869,223.6538,0,U,53813,999,1379,0,-.132E-5,0
SES-20,2022-123A,2026-06-11T14:28:01.971840,1.00272983,.0001856,0.0337,73.7808,9.2284,290.8532,0,U,53960,999,1347,0,-.85E-6,0
