STAR ONE D2             
1 49055U 21069A   26161.53997559  .00000000  00000+0  00000+0 0  9997
2 49055   0.0139 348.7558 0002001 118.3258 276.1001  1.00267877 17877
EUTELSAT QUANTUM        
1 49056U 21069B   26162.63261778  .00000143  00000+0  00000+0 0  9995
2 49056   0.0147  17.3719 0002145  64.1302  93.9199  1.00270266 17871
ZHONGXING-2E            
1 49062U 21071A   26162.71907719 -.00000275  00000+0  00000+0 0  9993
2 49062   0.0394 238.1865 0001707 249.3236 129.4921  1.00272053 17989
TJS-7                   
1 49115U 21077A   26162.81740093 -.00000108  00000+0  00000+0 0  9994
2 49115   0.4936  86.1736 0002176 335.7682  33.0100  1.00270340  9503
CHINASAT 9B             
1 49125U 21080A   26162.88779091 -.00000296  00000+0  00000+0 0  9994
2 49125   0.0411  96.6432 0001432  12.4152 212.2030  1.00271164 17598
SHIJIAN-21 (SJ-21)      
1 49330U 21094A   26162.72439160 -.00000334  00000+0  00000+0 0  9993
2 49330   5.0994  61.2124 0049766 168.1610  59.5061  1.00273487  5305
SES-17                  
1 49332U 21095A   26162.40030970 -.00000256  00000+0  00000+0 0  9990
2 49332   0.0244  33.3374 0001056  68.7337 234.6984  1.00275202 17791
SYRACUSE 4A             
1 49333U 21095B   26162.63218443  .00000151  00000+0  00000+0 0  9992
2 49333   0.0171 338.2301 0001328 113.6324  81.2144  1.00274447 17891
QZS-1R (MICHIBIKI-1R)   
1 49336U 21096A   26162.64809291 -.00000250  00000+0  00000+0 0  9995
2 49336  37.4503  79.6669 0754440 271.6776 276.3021  1.00257351 16958
ZHONGXING-1D            
1 49505U 21114A   26162.86281705 -.00000320  00000+0  00000+0 0  9990
2 49505   0.0323 238.8461 0000485 336.3200 125.8525  1.00271848 16768
STPSAT-6                
1 49817U 21118A   26162.67237351 -.00000030  00000+0  00000+0 0  9995
2 49817   0.3059  85.4535 0001427 249.2134  55.7350  1.00272992 16517
EXPRESS AMU-7           
1 50001U 21123A   26162.86576373 -.00000226  00000+0  00000+0 0  9996
2 50001   0.0144 291.2020 0000298  31.5518  34.1357  1.00271838 16487
EXPRESS AMU-3           
1 50002U 21123B   26161.99352352 -.00000304  00000+0  00000+0 0  9996
2 50002   0.0173 310.5314 0000337  43.9206   5.5594  1.00272912  6978
TIANLIAN 2-02           
1 50005U 21124A   26162.79963418  .00000002  00000+0  00000+0 0  9994
2 50005   0.7862  86.2327 0001220 204.8565  67.8986  1.00271763 16567
TURKSAT 5B              
1 50212U 21126A   26162.63149110  .00000163  00000+0  00000+0 0  9992
2 50212   0.0681 341.0112 0003462  14.4126 173.8894  1.00270734 16249
INMARSAT 6-F1           
1 50319U 21128A   26162.71106311 -.00000155  00000+0  00000+0 0  9999
2 50319   0.0171 314.9399 0000338 244.6061  40.2457  1.00270504 16204
SHIYAN-12 01 (SY-12 01) 
1 50321U 21129A   26162.71071374  .00000066  00000+0  00000+0 0  9993
2 50321   3.6596  79.9821 0003293 285.6552 214.9548  1.00038281 16449
SHIYAN-12 02 (SY-12 02) 
1 50322U 21129B   26162.71082051 -.00000211  00000+0  00000+0 0  9991
2 50322   3.6592  79.9883 0002693  59.3531 101.2052  1.00490692 16446
TJS-9                   
1 50574U 21135A   26162.86420373 -.00000283  00000+0  00000+0 0  9995
2 50574   0.0497 253.4439 0004458 156.0644 299.0126  1.00270037 16376
USA 324                 
1 51280U 22006A   26157.08795008 -.00000058  00000+0  00000+0 0  9996
2 51280   0.7690  83.2777 0002840 165.6787 110.1567  1.00289779 16021
GOES 18                 
1 51850U 22021A   26162.66734682  .00000113  00000+0  00000+0 0  9998
2 51850   0.0332 125.7729 0000460  29.3228 208.1548  1.00271607  6534
ZHONGXING-6D            
1 52255U 22038A   26161.93246068 -.00000336  00000+0  00000+0 0  9999
2 52255   0.0273 272.2854 0000194 200.9604 246.7680  1.00268573 15368
NILESAT 301             
1 52817U 22061A   26162.69308691 -.00000040  00000+0  00000+0 0  9996
2 52817   0.0457 351.7910 0005273  53.6570  97.1154  1.00278760 14687
CMS-02 (GSAT-24)        
1 52903U 22067A   26162.64611868 -.00000148  00000+0  00000+0 0  9995
2 52903   0.0422 121.5858 0001545 248.1891 205.8179  1.00271141 14551
MEASAT 3D               
1 52904U 22067B   26162.87007847 -.00000225  00000+0  00000+0 0  9993
2 52904   0.0379 315.4473 0000578 103.9988 245.4733  1.00269114 14597
SES-22                  
1 52933U 22071A   26162.66691347  .00000121  00000+0  00000+0 0  9995
2 52933   0.0161 302.1793 0001356 127.2488 291.6796  1.00268998  7464
WFOV (USA 332)          
1 52940U 22073A   26162.71808315 -.00000347  00000+0  00000+0 0  9997
2 52940   3.6961  78.5960 0002155 238.6185 320.6070  1.00269533 14314
TIANLIAN 2-03           
1 53100U 22078A   26162.83913630  .00000088  00000+0  00000+0 0  9992
2 53100   0.6585  76.9256 0001571 324.1858 171.7426  1.00271474 14497
SBIRS GEO-6 (USA 336)   
1 53355U 22092A   26162.79330749 -.00000276  00000+0  00000+0 0  9999
2 53355   3.2676 317.3945 0001800 120.3291 247.0137  1.00270778 14186
EUTELSAT KONNECT VHTS   
1 53765U 22110A   26160.62755586  .00000034  00000+0  00000+0 0  9996
2 53765   0.0647 103.4177 0002603 320.1706  63.0435  1.00269352  6766
ZHONGXING-1E            
1 53813U 22112A   26162.49675206 -.00000132  00000+0  00000+0 0  9999
2 53813   0.0524 102.4235 0000241 193.9869 223.6538  1.00269691 13795
SES-20                  
1 53960U 22123A   26162.60280060 -.00000085  00000+0  00000+0 0  9994
2 53960   0.0337  73.7808 0001856   9.2284 290.8532  1.00272983 13472
